OBJECT_NAME,OBJECT_ID,EPOCH,MEAN_MOTION,ECCENTRICITY,INCLINATION,RA_OF_ASC_NODE,ARG_OF_PERICENTER,MEAN_ANOMALY,EPHEMERIS_TYPE,CLASSIFICATION_TYPE,NORAD_CAT_ID,ELEMENT_SET_NO,REV_AT_EPOCH,BSTAR,MEAN_MOTION_DOT,MEAN_MOTION_DDOT
LEMUR-2-ROUNDTRIPPER,2025-009DG,2026-07-08T18:48:01.742400,15.04158991,.00043929,97.7229,272.4344,78.6143,281.5576,0,U,62711,999,8087,.4846626E-3,.6666E-4,0
LEMUR-2-MYNAMEISJEFF,2025-009DH,2026-07-08T18:45:47.880288,15.04151412,.00036156,97.7284,272.8265,112.1675,247.9935,0,U,62712,999,8087,.48178376E-3,.6624E-4,0
LEMUR-2-LEIA-PHILIP,2025-052AN,2026-07-08T15:42:43.071552,14.97380709,.00049616,97.6816,81.2420,135.3701,224.7921,0,U,63246,999,7188,.15163599E-3,.1704E-4,0
LEMUR-2-LIA-MARTIN,2025-052AQ,2026-07-08T15:38:47.928768,14.97991386,.00053407,97.6868,81.7463,106.1828,253.9982,0,U,63248,999,7189,.32627323E-3,.3795E-4,0
LEMUR-2-DELOITTE-1,2025-052BB,2026-07-08T16:45:18.552960,14.97751965,.00023088,97.6884,82.1233,66.8273,293.3192,0,U,63259,999,7191,.20556086E-3,.2354E-4,0
LEMUR-2-EMERSONROSE,2025-052BD,2026-07-08T15:39:00.575136,14.99250910,.00027623,97.6876,82.6763,71.2958,288.8564,0,U,63261,999,7195,.28348462E-3,.3399E-4,0
LEMUR-2-MARACHE-FRAN,2025-052BE,2026-07-08T22:42:20.727936,15.00289249,.00045737,97.6855,83.3255,280.3591,79.7117,0,U,63262,999,7202,.18602442E-3,.2271E-4,0
LEMUR-2-THEFALCONER,2025-052BG,2026-07-08T22:16:29.794368,14.97543375,.00007565,97.6850,81.9463,23.3580,336.7677,0,U,63264,999,7194,.20994058E-3,.2392E-4,0
LEMUR-2-UNTITLED-SC,2025-061A,2026-07-08T21:44:07.652832,15.13619371,.00185515,97.5647,165.1118,184.5054,175.6014,0,U,63351,999,7087,.11109842E-3,.1936E-4,0
LEMUR-2-ESPERANZA,2025-061B,2026-07-08T21:09:15.083712,15.13727556,.00182344,97.5651,165.1863,183.8064,176.3032,0,U,63352,999,7087,.16318816E-3,.2884E-4,0
LEMUR-2-KREMPEL-BRO2,2025-061C,2026-07-08T21:39:07.241760,15.14150560,.0019338,97.5699,165.7681,176.4682,183.6690,0,U,63353,999,7089,.11407092E-3,.2021E-4,0
LEMUR-2-THERMORAPTOR,2025-061D,2026-07-08T21:11:37.380192,15.14233684,.00190993,97.5706,165.8289,175.3605,184.7807,0,U,63354,999,7089,.14017927E-3,.2504E-4,0
LEMUR-2-NEUROSPICY,2025-061E,2026-07-08T22:03:34.821792,15.14352828,.00168279,97.5633,165.4742,178.1167,182.0131,0,U,63355,999,7090,.11822799E-3,.2107E-4,0
LEMUR-2-TILLINFINITY,2025-061F,2026-07-08T21:07:11.345088,15.14936063,.00184285,97.5618,165.7409,166.9103,193.2611,0,U,63356,999,7092,.14913425E-3,.2722E-4,0
LEMUR-2-KREMPEL-BRO1,2025-061G,2026-07-08T22:08:06.397728,15.14744684,.00190582,97.5618,165.6930,167.9566,192.2125,0,U,63357,999,7092,.11513717E-3,.2075E-4,0
LEMUR-2-LANGER2SPACE,2025-061H,2026-07-08T21:17:24.242496,15.14437027,.00167413,97.5622,165.4631,176.6297,183.5050,0,U,63358,999,7090,.14570427E-3,.2619E-4,0
LEMUR-2-BALTO,2025-052BH,2026-07-08T22:20:05.501472,15.00325727,.00055095,97.6931,83.2927,352.8014,7.3129,0,U,63395,999,7202,.27449623E-3,.3384E-4,0
LEMUR-2-KRISH,2025-135AK,2026-07-08T20:59:50.774208,14.96414469,.00017546,97.7762,304.6053,98.9232,261.2188,0,U,64561,999,5716,.33427778E-3,.3731E-4,0
LEMUR-2-HUBBLE-4,2025-135AP,2026-07-08T20:15:30.699648,14.93672147,.00021199,97.7714,303.4972,179.8758,180.2463,0,U,64565,999,5710,.99191857E-4,.992E-5,0
LEMUR-2-SEJONG-2,2025-135BL,2026-07-08T23:09:12.352320,14.96882583,.00033786,97.7703,304.8407,247.1690,112.9175,0,U,64586,999,5720,.1803241E-3,.201E-4,0
LEMUR-2-HUBBLE-5,2025-135BT,2026-07-08T20:31:28.098912,14.94199595,.00041064,97.7734,304.1704,262.4138,97.6616,0,U,64840,999,5714,.12402989E-3,.1272E-4,0
LEMUR-2-KARENDARRELL,2025-135BU,2026-07-08T20:40:04.897056,15.00440878,.00117501,97.7693,306.0385,124.4354,235.7982,0,U,64841,999,5726,.37563629E-3,.4672E-4,0
LEMUR-2-LUCILLE-ROSE,2025-135BV,2026-07-08T13:37:40.842048,15.00436483,.00139702,97.7715,305.7812,209.6508,150.3925,0,U,65403,999,5184,.35526773E-3,.4417E-4,0
LEMUR-2-AFFIE-WAUWIE,2025-248C,2026-07-08T12:07:48.199872,15.28058168,.00085285,45.3917,359.4149,217.2941,142.7357,0,U,66295,999,3785,.5560449E-3,.15242E-3,0
OTTER SDM,2025-276N,2026-07-08T15:30:13.624128,15.20005374,.00042499,97.4202,262.7679,285.4662,74.6103,0,U,66678,999,3367,.20017797E-3,.4244E-4,0
LEMUR-2-STAS-GORBUK,2025-276W,2026-07-08T17:33:27.856224,15.19615471,.00034361,97.4237,262.9047,281.4027,78.6822,0,U,66686,999,3368,.18026999E-3,.3772E-4,0
LEMUR-2-TEODOR,2025-276DG,2026-07-08T18:10:45.537600,15.21291840,.00023222,97.4141,263.1937,94.4026,265.7475,0,U,66768,999,3372,.190704E-3,.4196E-4,0
LEMUR-2-LAILA,2025-276DQ,2026-07-08T17:28:38.742816,15.21517643,.00028988,97.4166,263.2996,104.2252,255.9306,0,U,66776,999,3372,.17456123E-3,.386E-4,0
LEMUR-2-CELIJO-SB-PK,2025-276DW,2026-07-08T17:10:02.402976,15.00241883,.00073369,97.5199,259.7831,80.2189,279.9863,0,U,66781,999,2585,.32737877E-3,.4042E-4,0
